STARLINK-2755           
1 48479U 21040BD  22172.67617615  .00000358  00000+0  42946-4 0  9996
2 48479  53.0544 163.4976 0001549  55.4981 304.6154 15.06397099 61955
STARLINK-2690           
1 48480U 21040BE  22172.42365906  .00001276  00000+0  10455-3 0  9993
2 48480  53.0549 174.6168 0002168  47.2303 312.8868 15.06397115 61776
STARLINK-2706           
1 48481U 21040BF  22172.73058533  .00001237  00000+0  10191-3 0  9997
2 48481  53.0544 173.5275 0001988  50.6086 309.5079 15.06398805 61813
STARLINK-2525           
1 48482U 21040BG  22172.69737425 -.00000570  00000+0 -19357-4 0  9992
2 48482  53.0533 173.4047 0001874  54.5808 305.5356 15.06401499 61815
STARLINK-2531           
1 48483U 21040BH  22172.69368527  .00000793  00000+0  72113-4 0  9990
2 48483  53.0534 173.4190 0002044  43.5018 316.6132 15.06405465 61819
STARLINK-2696           
1 48484U 21040BJ  22172.70479441 -.00000479  00000+0 -13249-4 0  9999
2 48484  53.0553 173.7224 0001708  56.0749 304.0402 15.06392582 61814
STARLINK-2500           
1 48485U 21040BK  22172.70106139 -.00000631  00000+0 -23481-4 0  9990
2 48485  53.0538 173.3854 0001609  65.7611 294.3546 15.06395583 61812
STARLINK-2496           
1 48486U 21040BL  22172.70379812 -.00000392  00000+0 -73806-5 0  9992
2 48486  53.0536 173.3570 0002029  52.9578 307.1596 15.06395005 61810
STARLINK-2494           
1 48487U 21040BM  22172.70842552  .00001454  00000+0  11648-3 0  9991
2 48487  53.0529 173.3448 0002114  52.5681 307.5500 15.06403528 61823
STARLINK-2063           
1 48553U 21041A   22172.22091614  .00006696  00000+0  46745-3 0  9997
2 48553  53.0546 105.5362 0001626  72.2820 287.8347 15.06443181 60602
STARLINK-2139           
1 48554U 21041B   22172.22833047  .00000838  00000+0  75182-4 0  9992
2 48554  53.0554 105.5101 0001264  85.4489 274.6645 15.06390381 60606
STARLINK-2145           
1 48555U 21041C   22172.85402169 -.00000748  00000+0 -31348-4 0  9997
2 48555  53.0557 112.6956 0001939  62.3639 297.7546 15.06387426 60553
STARLINK-2151           
1 48556U 21041D   22172.84295868  .00000443  00000+0  48677-4 0  9996
2 48556  53.0550 112.7525 0001753  64.5214 295.5956 15.06395367 60551
STARLINK-2155           
1 48557U 21041E   22172.78122195  .00000165  00000+0  29996-4 0  9996
2 48557  53.0528 103.0207 0001502  72.3128 287.8025 15.06394313 60685
STARLINK-2166           
1 48558U 21041F   22172.51215367 -.00000225  00000+0  37742-5 0  9999
2 48558  53.0542 104.2307 0001353  65.9348 294.1782 15.06387839 59787
STARLINK-2167           
1 48559U 21041G   22172.54805474  .00000171  00000+0  30346-4 0  9998
2 48559  53.0545 104.0577 0001627  68.2647 291.8515 15.06404915 61090
STARLINK-2186           
1 48561U 21041J   22172.82825796  .00000892  00000+0  78790-4 0  9996
2 48561  53.0544  73.0845 0001482  94.4188 265.6970 15.06395397 61115
STARLINK-2187           
1 48562U 21041K   22172.22464090  .00000592  00000+0  58620-4 0  9994
2 48562  53.0550 105.5162 0001358  73.0624 287.0514 15.06394263 60602
STARLINK-2188           
1 48563U 21041L   22172.84019329  .00001105  00000+0  93082-4 0  9996
2 48563  53.0538 102.7561 0001540  64.3700 295.7448 15.06395550 60693
STARLINK-2190           
1 48564U 21041M   22172.23570512 -.00001178  00000+0 -60178-4 0  9998
2 48564  53.0548 105.4770 0001454  66.0625 294.0516 15.06394673 61005
STARLINK-2191           
1 48565U 21041N   22172.82819029  .00000074  00000+0  23880-4 0  9994
2 48565  53.0543 102.7991 0001683  76.4674 283.6502 15.06398258 60695
STARLINK-2214           
1 48566U 21041P   22172.85033083  .00000621  00000+0  60575-4 0  9996
2 48566  53.0542 112.6788 0001627  65.4984 294.6174 15.06397322 60552
STARLINK-2215           
1 48567U 21041Q   22172.86507702  .00000509  00000+0  53087-4 0  9997
2 48567  53.0563 112.6469 0001809  66.8115 293.3065 15.06399729 60553
STARLINK-2217           
1 48568U 21041R   22172.54531550  .00001423  00000+0  11437-3 0  9999
2 48568  53.0559 104.0793 0001339  62.9972 297.1154 15.06402617 60642
STARLINK-2219           
1 48569U 21041S   22172.83650802  .00000169  00000+0  30247-4 0  9991
2 48569  53.0545 102.7766 0001566  65.6437 294.4716 15.06398686 60690
STARLINK-2220           
1 48570U 21041T   22172.55914573  .00000656  00000+0  62959-4 0  9996
2 48570  53.0560 114.0147 0001493  65.2076 294.9069 15.06394025 60501
STARLINK-2221           
1 48571U 21041U   22172.83190239  .00000013  00000+0  19805-4 0  9992
2 48571  53.0539 112.8007 0001680  70.4927 289.6244 15.06399897 60553
STARLINK-2222           
1 48572U 21041V   22172.82822097 -.00000641  00000+0 -24179-4 0  9995
2 48572  53.0552 112.8098 0001395  72.3535 287.7606 15.06392128 60559
STARLINK-2224           
1 48573U 21041W   22172.54162787  .00000602  00000+0  59338-4 0  9998
2 48573  53.0554 104.0818 0001742  65.7869 294.3302 15.06404509 60641
STARLINK-2225           
1 48574U 21041X   22172.77662806  .00000606  00000+0  59622-4 0  9991
2 48574  53.0561  73.1217 0001653  59.8402 300.2751 15.06393860 61101
STARLINK-2227           
1 48575U 21041Y   22172.85867386  .00013035  00000+0  89189-3 0  9991
2 48575  53.0539  62.9867 0001482  65.3864 294.7280 15.06420646 61262
STARLINK-2228           
1 48576U 21041Z   22172.72639671  .00003110  00000+0  22769-3 0  9996
2 48576  53.0602  78.2344 0001799  59.5437 300.5730 15.06387156 61035
STARLINK-2231           
1 48577U 21041AA  22172.79964624  .00000221  00000+0  33760-4 0  9997
2 48577  53.0547 102.9279 0001734  62.8111 297.3054 15.06402674 60686
STARLINK-2232           
1 48578U 21041AB  22172.82920492  .00000003  00000+0  19078-4 0  9991
2 48578  53.0555 103.3154 0001485  60.5337 299.5800 15.06392557 60682
STARLINK-2233           
1 48579U 21041AC  22172.78859683 -.00000322  00000+0 -26930-5 0  9992
2 48579  53.0545 102.9922 0001822  66.6137 293.5043 15.06394483 60683
STARLINK-2234           
1 48580U 21041AD  22172.88763015 -.00000418  00000+0 -91620-5 0  9992
2 48580  53.0551  77.5538 0001539  75.4986 284.6173 15.06396735 61056
STARLINK-2235           
1 48581U 21041AE  22172.84895179  .00002799  00000+0  20669-3 0  9991
2 48581  53.0529  67.7220 0001668  62.8018 297.3141 15.06401628 61199
STARLINK-2236           
1 48582U 21041AF  22172.83054954  .00000695  00000+0  65545-4 0  9995
2 48582  53.0561  67.9511 0001645  69.8120 290.3045 15.06395992 61188
STARLINK-2237           
1 48583U 21041AG  22172.83559078  .00001106  00000+0  93152-4 0  9996
2 48583  53.0540 112.7739 0001873  71.0248 289.0943 15.06395137 61000
STARLINK-2238           
1 48584U 21041AH  22172.87613631  .00000459  00000+0  49721-4 0  9990
2 48584  53.0547 112.5995 0002038  60.2600 299.8592 15.06390916 60554
STARLINK-2240           
1 48585U 21041AJ  22172.55545970  .00000301  00000+0  39116-4 0  9999
2 48585  53.0554 114.0446 0001724  70.5500 289.5675 15.06397260 60901
STARLINK-2241           
1 48586U 21041AK  22172.81347522 -.00000598  00000+0 -21236-4 0  9996
2 48586  53.0548 112.8805 0001908  73.3771 286.7427 15.06396321 60546
STARLINK-2242           
1 48587U 21041AL  22172.55176860  .00000507  00000+0  52959-4 0  9997
2 48587  53.0576 114.0477 0001627  59.6384 300.4766 15.06400027 60901
STARLINK-2244           
1 48588U 21041AM  22172.79596607  .00001243  00000+0  10232-3 0  9994
2 48588  53.0553 102.9542 0001551  67.3795 292.7358 15.06393443 60682
STARLINK-2245           
1 48589U 21041AN  22172.79227927 -.00000232  00000+0  33241-5 0  9996
2 48589  53.0563 102.9763 0001527  62.4580 297.6564 15.06407087 60683
STARLINK-2248           
1 48591U 21041AQ  22172.51120959 -.00000653  00000+0 -24920-4 0  9997
2 48591  53.0570 104.2412 0001633  64.0305 296.0852 15.06391539 61544
STARLINK-2249           
1 48592U 21041AR  22172.85307925 -.00000319  00000+0 -25353-5 0  9996
2 48592  53.0557 112.7257 0001571  49.2587 310.8538 15.06390191 60558
STARLINK-2250           
1 48593U 21041AS  22172.26057470  .00001483  00000+0  11843-3 0  9997
2 48593  53.0525 115.3640 0001525  65.3562 294.7586 15.06398173 60461
STARLINK-2251           
1 48594U 21041AT  22172.88627709  .00000138  00000+0  28182-4 0  9995
2 48594  53.0562  82.6304 0001353  86.9583 273.1561 15.06399313 60985
STARLINK-2252           
1 48595U 21041AU  22172.83928002  .00002417  00000+0  18112-3 0  9994
2 48595  53.0544 112.7610 0001626  64.2448 295.8709 15.06397963 61821
STARLINK-2253           
1 48596U 21041AV  22172.86139488 -.00000140  00000+0  95021-5 0  9998
2 48596  53.0547 112.6669 0001730  57.5499 302.5657 15.06388106 61013
STARLINK-2255           
1 48597U 21041AW  22172.86875822  .00000740  00000+0  68599-4 0  9992
2 48597  53.0534 112.6320 0001269  67.9571 292.1552 15.06399012 61822
STARLINK-2256           
1 48598U 21041AX  22172.60705407 -.00002952  00000+0 -17932-3 0  9999
2 48598  53.0547 113.7994 0001510  69.4676 290.6475 15.06411183 60974
STARLINK-2274           
1 48599U 21041AY  22172.83236089  .00002820  00000+0  20810-3 0  9991
2 48599  53.0550  87.7898 0001820  65.9897 294.1283 15.06411025 62177
STARLINK-2275           
1 48600U 21041AZ  22172.20620966  .00000685  00000+0  64905-4 0  9997
2 48600  53.0562 105.5926 0001641  80.7979 279.3195 15.06404452 61869
STARLINK-2713           
1 48602U 21041BB  22172.46745114  .00001836  00000+0  14213-3 0  9995
2 48602  53.0565  89.4306 0001669  57.4651 302.6499 15.06397500 62104
STARLINK-2714           
1 48603U 21041BC  22172.84478213  .00000459  00000+0  49713-4 0  9995
2 48603  53.0558  82.7236 0001741  59.2551 300.8609 15.06394916 62241
STARLINK-2757           
1 48604U 21041BD  22172.84664372  .00000035  00000+0  21299-4 0  9998
2 48604  53.0557 112.7322 0002079  65.9783 294.1423 15.06395693 61822
CAPELLA-6-WHITNEY       
1 48605U 21041BE  22172.69709088  .00000853  00000+0  90795-4 0  9991
2 48605  53.0342 133.0281 0015471  61.0398 299.2137 14.99235838 60231
